{
    "links": {
        "self": "http://www.neowsapp.com/rest/v1/neo/3726337?api_key=iIulBulltgU6a56xZRHN4H3l9WmuAYTsLGpBGhQ2"
    },
    "id": "3726337",
    "neo_reference_id": "3726337",
    "name": "(2015 OT79)",
    "designation": "2015 OT79",
    "nasa_jpl_url": "http://ssd.jpl.nasa.gov/sbdb.cgi?sstr=3726337",
    "absolute_magnitude_h": 22.743,
    "estimated_diameter": {
        "kilometers": {
            "estimated_diameter_min": 0.0751544977,
            "estimated_diameter_max": 0.1680505657
        },
        "meters": {
            "estimated_diameter_min": 75.1544977166,
            "estimated_diameter_max": 168.0505657091
        },
        "miles": {
            "estimated_diameter_min": 0.0466988254,
            "estimated_diameter_max": 0.1044217481
        },
        "feet": {
            "estimated_diameter_min": 246.5698822884,
            "estimated_diameter_max": 551.3470180011
        }
    },
    "is_potentially_hazardous_asteroid": false,
    "close_approach_data": [
        {
            "close_approach_date": "2015-08-07",
            "close_approach_date_full": "2015-Aug-07 09:06",
            "epoch_date_close_approach": 1438938360000,
            "relative_velocity": {
                "kilometers_per_second": "8.6642611675",
                "kilometers_per_hour": "31191.3402028734",
                "miles_per_hour": "19381.0858055021"
            },
            "miss_distance": {
                "astronomical": "0.2679164857",
                "lunar": "104.2195129373",
                "kilometers": "40079735.598605459",
                "miles": "24904392.8689309742"
            },
            "orbiting_body": "Earth"
        }
    ],
    "orbital_data": {
        "orbit_id": "3",
        "orbit_determination_date": "2017-04-06 08:32:36",
        "first_observation_date": "2015-07-24",
        "last_observation_date": "2015-07-27",
        "data_arc_in_days": 3,
        "observations_used": 16,
        "orbit_uncertainty": "9",
        "minimum_orbit_intersection": ".247614",
        "jupiter_tisserand_invariant": "3.234",
        "epoch_osculation": "2457230.5",
        "eccentricity": ".5088578819889531",
        "semi_major_axis": "2.513703809301159",
        "inclination": "13.350943369305",
        "ascending_node_longitude": "115.7676091586625",
        "orbital_period": "1455.692289978277",
        "perihelion_distance": "1.234585812952608",
        "perihelion_argument": "212.8647682901508",
        "aphelion_distance": "3.79282180564971",
        "perihelion_time": "2457251.687936239208",
        "mean_anomaly": "354.7601171630656",
        "mean_motion": ".2473050125211367",
        "equinox": "J2000",
        "orbit_class": {
            "orbit_class_type": "AMO",
            "orbit_class_description": "Near-Earth asteroid orbits similar to that of 1221 Amor",
            "orbit_class_range": "1.017 AU < q (perihelion) < 1.3 AU"
        }
    },
    "is_sentry_object": false
}